{
  "type": "FeatureCollection",
  "features": [
    {
      "type": "Feature",
      "properties": {
        "norad_id": 58655,
        "name": "BEIDOU-3 M26 (C48)",
        "group": "beidou",
        "lat": -42.382985127925735,
        "lon": 29.446537687113825,
        "alt_km": 21524.260984681732,
        "timestamp": "2025-12-27T17:24:57.670830+00:00",
        "meta_object_name": "BEIDOU-3 M26 (C48)",
        "meta_object_id": "2023-207B",
        "meta_epoch": "2025-12-27T06:29:22.403616",
        "meta_mean_motion": 1.86231136,
        "meta_eccentricity": 0.0004292,
        "meta_inclination": 55.5988,
        "meta_ra_of_asc_node": 68.0955,
        "meta_arg_of_pericenter": 262.2645,
        "meta_mean_anomaly": 97.7357,
        "meta_ephemeris_type": 0,
        "meta_classification_type": "U",
        "meta_norad_cat_id": 58655,
        "meta_element_set_no": 999,
        "meta_rev_at_epoch": 1362,
        "meta_bstar": 0,
        "meta_mean_motion_dot": -3.8e-07,
        "meta_mean_motion_ddot": 0,
        "tle_line1": "1 58655U 23207B   25361.27039819 -.00000038  00000+0  00000+0 0  9999",
        "tle_line2": "2 58655  55.5988  68.0955 0004292 262.2645  97.7357  1.86231136 13629"
      },
      "geometry": {
        "type": "Point",
        "coordinates": [
          29.446537687113825,
          -42.382985127925735
        ]
      }
    },
    {
      "type": "Feature",
      "properties": {
        "norad_id": 61186,
        "name": "BEIDOU-3 M25 (C47)",
        "group": "beidou",
        "lat": 46.1437935281299,
        "lon": -4.203458184400336,
        "alt_km": 21530.495225678453,
        "timestamp": "2025-12-27T17:24:57.670841+00:00",
        "meta_object_name": "BEIDOU-3 M25 (C47)",
        "meta_object_id": "2024-168B",
        "meta_epoch": "2025-12-27T08:49:57.848160",
        "meta_mean_motion": 1.86229881,
        "meta_eccentricity": 0.000539,
        "meta_inclination": 54.6289,
        "meta_ra_of_asc_node": 308.2141,
        "meta_arg_of_pericenter": 300.5996,
        "meta_mean_anomaly": 241.7182,
        "meta_ephemeris_type": 0,
        "meta_classification_type": "U",
        "meta_norad_cat_id": 61186,
        "meta_element_set_no": 999,
        "meta_rev_at_epoch": 858,
        "meta_bstar": 0,
        "meta_mean_motion_dot": -6.1e-07,
        "meta_mean_motion_ddot": 0,
        "tle_line1": "1 61186U 24168B   25361.36803065 -.00000061  00000+0  00000+0 0  9997",
        "tle_line2": "2 61186  54.6289 308.2141 0005390 300.5996 241.7182  1.86229881  8587"
      },
      "geometry": {
        "type": "Point",
        "coordinates": [
          -4.203458184400336,
          46.1437935281299
        ]
      }
    },
    {
      "type": "Feature",
      "properties": {
        "norad_id": 61187,
        "name": "BEIDOU-3 M27 (C49)",
        "group": "beidou",
        "lat": -13.850722003710649,
        "lon": 138.24800043411622,
        "alt_km": 21535.93112555419,
        "timestamp": "2025-12-27T17:24:57.670852+00:00",
        "meta_object_name": "BEIDOU-3 M27 (C49)",
        "meta_object_id": "2024-168C",
        "meta_epoch": "2025-12-26T02:09:38.712960",
        "meta_mean_motion": 1.86230112,
        "meta_eccentricity": 0.00025351,
        "meta_inclination": 54.6256,
        "meta_ra_of_asc_node": 308.2421,
        "meta_arg_of_pericenter": 341.7609,
        "meta_mean_anomaly": 198.677,
        "meta_ephemeris_type": 0,
        "meta_classification_type": "U",
        "meta_norad_cat_id": 61187,
        "meta_element_set_no": 999,
        "meta_rev_at_epoch": 603,
        "meta_bstar": 0,
        "meta_mean_motion_dot": -5.6e-07,
        "meta_mean_motion_ddot": 0,
        "tle_line1": "1 61187U 24168C   25360.09003140 -.00000056  00000+0  00000+0 0  9997",
        "tle_line2": "2 61187  54.6256 308.2421 0002535 341.7609 198.6770  1.86230112  6039"
      },
      "geometry": {
        "type": "Point",
        "coordinates": [
          138.24800043411622,
          -13.850722003710649
        ]
      }
    }
  ]
}